ATLAS CENTAUR R/B       
1 06155U 72065B   26019.63768348  .00000922  00000+0  12919-3 0  9997
2 06155  35.0004 233.1831 0034381 316.6344  43.1653 14.77517290834008
SL-8 R/B                
1 08459U 75112B   26019.60241636  .00000260  00000+0  94343-4 0  9992
2 08459  74.0611 109.2155 0016264 216.5942 143.4102 14.38172556624816
SL-3 R/B                
1 10114U 77057B   26019.61783303  .00012343  00000+0  27281-3 0  9997
2 10114  97.5703 189.4553 0008579  99.0938 261.1281 15.43954735660753
SEASAT 1                
1 10967U 78064A   26019.65980260  .00000295  00000+0  12110-3 0  9995
2 10967 108.0164  22.6019 0001205 281.3579  78.7431 14.46106972499426
SL-14 R/B               
1 11267U 79011B   26019.61826425  .00000689  00000+0  65626-4 0  9998
2 11267  82.5259 143.1213 0015159 217.3169 142.6999 14.91828534521468
SL-8 R/B                
1 11574U 79089B   26019.63853114  .00000393  00000+0  12685-3 0  9999
2 11574  74.0679 181.8341 0015691   2.4789 357.6442 14.42311365429030
SL-14 R/B               
1 11672U 80005B   26019.39773206  .00000722  00000+0  70657-4 0  9994
2 11672  82.5153 353.9790 0015016 333.5544  26.4907 14.90846666469141
SL-8 R/B                
1 12139U 81003B   26019.63125253  .00026133  00000+0  69319-3 0  9998
2 12139  82.9394 335.3206 0270053 350.0794   9.5159 15.08718299307278
SL-3 R/B                
1 12465U 81046B   26019.57391759  .00011268  00000+0  27523-3 0  9990
2 12465  81.2336 348.6428 0019040 184.5680 175.5392 15.40508195430865
SL-3 R/B                
1 12904U 81103B   26019.56604598  .00005475  00000+0  24717-3 0  9994
2 12904  81.1590 271.0414 0014447  89.6687 270.6200 15.20717889965763
SL-3 R/B                
1 13068U 82013B   26019.59562165  .00003492  00000+0  15333-3 0  9994
2 13068  81.1719 218.2860 0022611 347.6378  12.4295 15.21435896396885
SL-3 R/B                
1 13154U 82039B   26019.61834942  .00002592  00000+0  15750-3 0  9999
2 13154  81.1668 272.5069 0029984 125.0429 235.3616 15.09767299374232
