CCSDS_OMM_VERS = 2.0
CREATION_DATE  = 
ORIGINATOR     = 

OBJECT_NAME    = ATLAS CENTAUR R/B
OBJECT_ID      = 1972-065B
CENTER_NAME    = EARTH
REF_FRAME      = TEME
TIME_SYSTEM    = UTC
MEAN_ELEMENT_THEORY = SGP/SGP4

EPOCH          = 2026-01-19T15:18:15.852672
MEAN_MOTION    = 14.77517290
ECCENTRICITY   = .00343818
INCLINATION    = 35.0004
RA_OF_ASC_NODE = 233.1831
ARG_OF_PERICENTER = 316.6344
MEAN_ANOMALY   = 43.1653

EPHEMERIS_TYPE = 0
CLASSIFICATION_TYPE = U
NORAD_CAT_ID   = 6155
ELEMENT_SET_NO = 999
REV_AT_EPOCH   = 83400
BSTAR          = .12918999E-3
MEAN_MOTION_DOT = .922E-5
MEAN_MOTION_DDOT = 0

CCSDS_OMM_VERS = 2.0
CREATION_DATE  = 
ORIGINATOR     = 

OBJECT_NAME    = SL-8 R/B
OBJECT_ID      = 1975-112B
CENTER_NAME    = EARTH
REF_FRAME      = TEME
TIME_SYSTEM    = UTC
MEAN_ELEMENT_THEORY = SGP/SGP4

EPOCH          = 2026-01-19T14:27:28.773504
MEAN_MOTION    = 14.38172556
ECCENTRICITY   = .00162641
INCLINATION    = 74.0611
RA_OF_ASC_NODE = 109.2155
ARG_OF_PERICENTER = 216.5942
MEAN_ANOMALY   = 143.4102

EPHEMERIS_TYPE = 0
CLASSIFICATION_TYPE = U
NORAD_CAT_ID   = 8459
ELEMENT_SET_NO = 999
REV_AT_EPOCH   = 62481
BSTAR          = .94343406E-4
MEAN_MOTION_DOT = .26E-5
MEAN_MOTION_DDOT = 0

CCSDS_OMM_VERS = 2.0
CREATION_DATE  = 
ORIGINATOR     = 

OBJECT_NAME    = SL-3 R/B
OBJECT_ID      = 1977-057B
CENTER_NAME    = EARTH
REF_FRAME      = TEME
TIME_SYSTEM    = UTC
MEAN_ELEMENT_THEORY = SGP/SGP4

EPOCH          = 2026-01-19T14:49:40.773792
MEAN_MOTION    = 15.43954735
ECCENTRICITY   = .00085798
INCLINATION    = 97.5703
RA_OF_ASC_NODE = 189.4553
ARG_OF_PERICENTER = 99.0938
MEAN_ANOMALY   = 261.1281

EPHEMERIS_TYPE = 0
CLASSIFICATION_TYPE = U
NORAD_CAT_ID   = 10114
ELEMENT_SET_NO = 999
REV_AT_EPOCH   = 66075
BSTAR          = .27280517E-3
MEAN_MOTION_DOT = .12343E-3
MEAN_MOTION_DDOT = 0

CCSDS_OMM_VERS = 2.0
CREATION_DATE  = 
ORIGINATOR     = 

OBJECT_NAME    = SEASAT 1
OBJECT_ID      = 1978-064A
CENTER_NAME    = EARTH
REF_FRAME      = TEME
TIME_SYSTEM    = UTC
MEAN_ELEMENT_THEORY = SGP/SGP4

EPOCH          = 2026-01-19T15:50:06.944640
MEAN_MOTION    = 14.46106972
ECCENTRICITY   = .00012053
INCLINATION    = 108.0164
RA_OF_ASC_NODE = 22.6019
ARG_OF_PERICENTER = 281.3579
MEAN_ANOMALY   = 78.7431

EPHEMERIS_TYPE = 0
CLASSIFICATION_TYPE = U
NORAD_CAT_ID   = 10967
ELEMENT_SET_NO = 999
REV_AT_EPOCH   = 49942
BSTAR          = .12109816E-3
MEAN_MOTION_DOT = .295E-5
MEAN_MOTION_DDOT = 0

CCSDS_OMM_VERS = 2.0
CREATION_DATE  = 
ORIGINATOR     = 

OBJECT_NAME    = SL-14 R/B
OBJECT_ID      = 1979-011B
CENTER_NAME    = EARTH
REF_FRAME      = TEME
TIME_SYSTEM    = UTC
MEAN_ELEMENT_THEORY = SGP/SGP4

EPOCH          = 2026-01-19T14:50:18.031200
MEAN_MOTION    = 14.91828534
ECCENTRICITY   = .00151599
INCLINATION    = 82.5259
RA_OF_ASC_NODE = 143.1213
ARG_OF_PERICENTER = 217.3169
MEAN_ANOMALY   = 142.6999

EPHEMERIS_TYPE = 0
CLASSIFICATION_TYPE = U
NORAD_CAT_ID   = 11267
ELEMENT_SET_NO = 999
REV_AT_EPOCH   = 52146
BSTAR          = .65626012E-4
MEAN_MOTION_DOT = .689E-5
MEAN_MOTION_DDOT = 0

CCSDS_OMM_VERS = 2.0
CREATION_DATE  = 
ORIGINATOR     = 

OBJECT_NAME    = SL-8 R/B
OBJECT_ID      = 1979-089B
CENTER_NAME    = EARTH
REF_FRAME      = TEME
TIME_SYSTEM    = UTC
MEAN_ELEMENT_THEORY = SGP/SGP4

EPOCH          = 2026-01-19T15:19:29.090496
MEAN_MOTION    = 14.42311365
ECCENTRICITY   = .00156912
INCLINATION    = 74.0679
RA_OF_ASC_NODE = 181.8341
ARG_OF_PERICENTER = 2.4789
MEAN_ANOMALY   = 357.6442

EPHEMERIS_TYPE = 0
CLASSIFICATION_TYPE = U
NORAD_CAT_ID   = 11574
ELEMENT_SET_NO = 999
REV_AT_EPOCH   = 42903
BSTAR          = .12685347E-3
MEAN_MOTION_DOT = .393E-5
MEAN_MOTION_DDOT = 0

CCSDS_OMM_VERS = 2.0
CREATION_DATE  = 
ORIGINATOR     = 

OBJECT_NAME    = SL-14 R/B
OBJECT_ID      = 1980-005B
CENTER_NAME    = EARTH
REF_FRAME      = TEME
TIME_SYSTEM    = UTC
MEAN_ELEMENT_THEORY = SGP/SGP4

EPOCH          = 2026-01-19T09:32:44.049984
MEAN_MOTION    = 14.90846666
ECCENTRICITY   = .00150164
INCLINATION    = 82.5153
RA_OF_ASC_NODE = 353.9790
ARG_OF_PERICENTER = 333.5544
MEAN_ANOMALY   = 26.4907

EPHEMERIS_TYPE = 0
CLASSIFICATION_TYPE = U
NORAD_CAT_ID   = 11672
ELEMENT_SET_NO = 999
REV_AT_EPOCH   = 46914
BSTAR          = .70657311E-4
MEAN_MOTION_DOT = .722E-5
MEAN_MOTION_DDOT = 0

CCSDS_OMM_VERS = 2.0
CREATION_DATE  = 
ORIGINATOR     = 

OBJECT_NAME    = SL-8 R/B
OBJECT_ID      = 1981-003B
CENTER_NAME    = EARTH
REF_FRAME      = TEME
TIME_SYSTEM    = UTC
MEAN_ELEMENT_THEORY = SGP/SGP4

EPOCH          = 2026-01-19T15:09:00.218592
MEAN_MOTION    = 15.08718299
ECCENTRICITY   = .02700538
INCLINATION    = 82.9394
RA_OF_ASC_NODE = 335.3206
ARG_OF_PERICENTER = 350.0794
MEAN_ANOMALY   = 9.5159

EPHEMERIS_TYPE = 0
CLASSIFICATION_TYPE = U
NORAD_CAT_ID   = 12139
ELEMENT_SET_NO = 999
REV_AT_EPOCH   = 30727
BSTAR          = .69318867E-3
MEAN_MOTION_DOT = .26133E-3
MEAN_MOTION_DDOT = 0

CCSDS_OMM_VERS = 2.0
CREATION_DATE  = 
ORIGINATOR     = 

OBJECT_NAME    = SL-3 R/B
OBJECT_ID      = 1981-046B
CENTER_NAME    = EARTH
REF_FRAME      = TEME
TIME_SYSTEM    = UTC
MEAN_ELEMENT_THEORY = SGP/SGP4

EPOCH          = 2026-01-19T13:46:26.479776
MEAN_MOTION    = 15.40508195
ECCENTRICITY   = .00190406
INCLINATION    = 81.2336
RA_OF_ASC_NODE = 348.6428
ARG_OF_PERICENTER = 184.5680
MEAN_ANOMALY   = 175.5392

EPHEMERIS_TYPE = 0
CLASSIFICATION_TYPE = U
NORAD_CAT_ID   = 12465
ELEMENT_SET_NO = 999
REV_AT_EPOCH   = 43086
BSTAR          = .27523082E-3
MEAN_MOTION_DOT = .11268E-3
MEAN_MOTION_DDOT = 0

CCSDS_OMM_VERS = 2.0
CREATION_DATE  = 
ORIGINATOR     = 

OBJECT_NAME    = SL-3 R/B
OBJECT_ID      = 1981-103B
CENTER_NAME    = EARTH
REF_FRAME      = TEME
TIME_SYSTEM    = UTC
MEAN_ELEMENT_THEORY = SGP/SGP4

EPOCH          = 2026-01-19T13:35:06.372672
MEAN_MOTION    = 15.20717889
ECCENTRICITY   = .00144474
INCLINATION    = 81.1590
RA_OF_ASC_NODE = 271.0414
ARG_OF_PERICENTER = 89.6687
MEAN_ANOMALY   = 270.6200

EPHEMERIS_TYPE = 0
CLASSIFICATION_TYPE = U
NORAD_CAT_ID   = 12904
ELEMENT_SET_NO = 999
REV_AT_EPOCH   = 96576
BSTAR          = .24717466E-3
MEAN_MOTION_DOT = .5475E-4
MEAN_MOTION_DDOT = 0

CCSDS_OMM_VERS = 2.0
CREATION_DATE  = 
ORIGINATOR     = 

OBJECT_NAME    = SL-3 R/B
OBJECT_ID      = 1982-013B
CENTER_NAME    = EARTH
REF_FRAME      = TEME
TIME_SYSTEM    = UTC
MEAN_ELEMENT_THEORY = SGP/SGP4

EPOCH          = 2026-01-19T14:17:41.710560
MEAN_MOTION    = 15.21435896
ECCENTRICITY   = .00226115
INCLINATION    = 81.1719
RA_OF_ASC_NODE = 218.2860
ARG_OF_PERICENTER = 347.6378
MEAN_ANOMALY   = 12.4295

EPHEMERIS_TYPE = 0
CLASSIFICATION_TYPE = U
NORAD_CAT_ID   = 13068
ELEMENT_SET_NO = 999
REV_AT_EPOCH   = 39688
BSTAR          = .15333115E-3
MEAN_MOTION_DOT = .3492E-4
MEAN_MOTION_DDOT = 0

CCSDS_OMM_VERS = 2.0
CREATION_DATE  = 
ORIGINATOR     = 

OBJECT_NAME    = SL-3 R/B
OBJECT_ID      = 1982-039B
CENTER_NAME    = EARTH
REF_FRAME      = TEME
TIME_SYSTEM    = UTC
MEAN_ELEMENT_THEORY = SGP/SGP4

EPOCH          = 2026-01-19T14:50:25.389888
MEAN_MOTION    = 15.09767299
ECCENTRICITY   = .00299843
INCLINATION    = 81.1668
RA_OF_ASC_NODE = 272.5069
ARG_OF_PERICENTER = 125.0429
MEAN_ANOMALY   = 235.3616

EPHEMERIS_TYPE = 0
CLASSIFICATION_TYPE = U
NORAD_CAT_ID   = 13154
ELEMENT_SET_NO = 999
REV_AT_EPOCH   = 37423
BSTAR          = .15750296E-3
MEAN_MOTION_DOT = .2592E-4
MEAN_MOTION_DDOT = 0

